*******************************************************************************
Ephemeris / WWW_USER Mon Jul 15 19:20:28 2024 Pasadena, USA      / Horizons    
*******************************************************************************
Target body name: (2019 AS11)                     {source: JPL#3}
Center body name: Earth (399)                     {source: DE441}
Center-site name: Gemini South Obs., Cerro Pachon
*******************************************************************************
Start time      : A.D. 2018-Dec-17 23:51:00.0000 UT      
Stop  time      : A.D. 2018-Dec-18 09:27:00.0000 UT      
Step-size       : 1 minutes
*******************************************************************************
Target pole/equ : undefined
Target radii    : undefined                                                    
Center geodetic : 289.2634, -30.2406227, 2.71233  {E-lon(deg),Lat(deg),Alt(km)}
Center cylindric: 289.2634,5517.21435,-3194.81213 {E-lon(deg),Dxy(km),Dz(km)}
Center pole/equ : ITRF93                          {East-longitude positive}
Center radii    : 6378.137, 6378.137, 6356.752 km {Equator_a, b, pole_c}       
Target primary  : Sun
Vis. interferer : MOON (R_eq= 1737.400) km        {source: DE441}
Rel. light bend : Sun                             {source: DE441}
Rel. lght bnd GM: 1.3271E+11 km^3/s^2                                          
Small-body perts: Yes                             {source: SB441-N16}
Atmos refraction: NO (AIRLESS)
RA format       : HMS
Time format     : CAL 
Calendar mode   : Mixed Julian/Gregorian
RTS-only print  : NO       
EOP file        : eop.240715.p241008                                           
EOP coverage    : DATA-BASED 1962-JAN-20 TO 2024-JUL-15. PREDICTS-> 2024-OCT-07
Units conversion: 1 au= 149597870.700 km, c= 299792.458 km/s, 1 day= 86400.0 s 
Table cut-offs 1: Elevation (-90.0deg=NO ),Airmass (>38.000=NO), Daylight (YES)
Table cut-offs 2: Solar elongation (  0.0,180.0=NO ),Local Hour Angle( 0.0=NO )
Table cut-offs 3: RA/DEC angular rate (     0.0=NO )                           
*******************************************************************************
Initial IAU76/J2000 heliocentric ecliptic osculating elements (au, days, deg.):
  EPOCH=  2458497.5 ! 2019-Jan-14.00 (TDB)         Residual RMS= .087899       
   EC= .1148313279028816   QR= .9946661968961306   TP= 2458526.093433633       
   OM= 299.8828960483019   W=  203.050931799211    IN= 7.281527766683049       
  Equivalent ICRF heliocentric cartesian coordinates (au, au/d):
   X=-3.982431103506237E-01  Y= 8.438985356712057E-01  Z= 3.820551439764541E-01
  VX=-1.601846206933958E-02 VY=-6.309373484980013E-03 VZ=-5.215303828559489E-03
Asteroid physical parameters (km, seconds, rotational period in hours):        
   GM= n.a.                RAD= n.a.               ROTPER= n.a.                
   H= 26.8                 G= .150                 B-V= n.a.                   
                           ALBEDO= n.a.            STYP= n.a.                  
*******************************************************************************
 Date__(UT)__HR:MN     R.A._________(ICRF)_________DEC
******************************************************
$$SOE
 2018-Dec-18 06:00  m  07 57 24.442384 +73 18 19.89195
 2018-Dec-18 06:01  m  07 57 24.454542 +73 18 19.89262
 2018-Dec-18 06:02  m  07 57 24.466611 +73 18 19.89178
 2018-Dec-18 06:03  m  07 57 24.478592 +73 18 19.88945
 2018-Dec-18 06:04  m  07 57 24.490487 +73 18 19.88562
 2018-Dec-18 06:05  m  07 57 24.502299 +73 18 19.88029
 2018-Dec-18 06:06  m  07 57 24.514027 +73 18 19.87345
 2018-Dec-18 06:07  m  07 57 24.525674 +73 18 19.86511
 2018-Dec-18 06:08  m  07 57 24.537241 +73 18 19.85527
 2018-Dec-18 06:09  m  07 57 24.548731 +73 18 19.84392
 2018-Dec-18 06:10  m  07 57 24.560143 +73 18 19.83106
 2018-Dec-18 06:11  m  07 57 24.571481 +73 18 19.81668
 2018-Dec-18 06:12  m  07 57 24.582745 +73 18 19.80080
 2018-Dec-18 06:13  m  07 57 24.593938 +73 18 19.78341
 2018-Dec-18 06:14  m  07 57 24.605060 +73 18 19.76450
 2018-Dec-18 06:15  m  07 57 24.616113 +73 18 19.74408
 2018-Dec-18 06:16  m  07 57 24.627099 +73 18 19.72214
 2018-Dec-18 06:17  m  07 57 24.638019 +73 18 19.69868
 2018-Dec-18 06:18  m  07 57 24.648876 +73 18 19.67371
 2018-Dec-18 06:19  m  07 57 24.659670 +73 18 19.64721
 2018-Dec-18 06:20  m  07 57 24.670403 +73 18 19.61920
 2018-Dec-18 06:21  m  07 57 24.681077 +73 18 19.58966
 2018-Dec-18 06:22  m  07 57 24.691693 +73 18 19.55860
 2018-Dec-18 06:23  m  07 57 24.702253 +73 18 19.52601
 2018-Dec-18 06:24  m  07 57 24.712758 +73 18 19.49190
 2018-Dec-18 06:25  m  07 57 24.723210 +73 18 19.45627
 2018-Dec-18 06:26  m  07 57 24.733611 +73 18 19.41911
 2018-Dec-18 06:27  m  07 57 24.743962 +73 18 19.38042
 2018-Dec-18 06:28  m  07 57 24.754264 +73 18 19.34020
 2018-Dec-18 06:29  m  07 57 24.764520 +73 18 19.29845
 2018-Dec-18 06:30  m  07 57 24.774731 +73 18 19.25518
 2018-Dec-18 06:31  m  07 57 24.784898 +73 18 19.21037
 2018-Dec-18 06:32  m  07 57 24.795024 +73 18 19.16403
 2018-Dec-18 06:33  m  07 57 24.805108 +73 18 19.11616
 2018-Dec-18 06:34  m  07 57 24.815155 +73 18 19.06675
 2018-Dec-18 06:35  m  07 57 24.825164 +73 18 19.01581
 2018-Dec-18 06:36  m  07 57 24.835137 +73 18 18.96334
 2018-Dec-18 06:37  m  07 57 24.845076 +73 18 18.90933
 2018-Dec-18 06:38  m  07 57 24.854983 +73 18 18.85378
 2018-Dec-18 06:39  m  07 57 24.864860 +73 18 18.79670
 2018-Dec-18 06:40  m  07 57 24.874707 +73 18 18.73808
 2018-Dec-18 06:41  m  07 57 24.884526 +73 18 18.67793
 2018-Dec-18 06:42     07 57 24.894319 +73 18 18.61624
 2018-Dec-18 06:43     07 57 24.904088 +73 18 18.55301
 2018-Dec-18 06:44     07 57 24.913834 +73 18 18.48824
 2018-Dec-18 06:45     07 57 24.923558 +73 18 18.42193
 2018-Dec-18 06:46     07 57 24.933263 +73 18 18.35408
 2018-Dec-18 06:47     07 57 24.942950 +73 18 18.28469
 2018-Dec-18 06:48     07 57 24.952620 +73 18 18.21377
 2018-Dec-18 06:49     07 57 24.962276 +73 18 18.14130
 2018-Dec-18 06:50     07 57 24.971918 +73 18 18.06729
 2018-Dec-18 06:51     07 57 24.981548 +73 18 17.99174
 2018-Dec-18 06:52     07 57 24.991168 +73 18 17.91465
 2018-Dec-18 06:53     07 57 25.000780 +73 18 17.83602
 2018-Dec-18 06:54     07 57 25.010385 +73 18 17.75585
 2018-Dec-18 06:55     07 57 25.019984 +73 18 17.67414
 2018-Dec-18 06:56     07 57 25.029580 +73 18 17.59088
 2018-Dec-18 06:57     07 57 25.039174 +73 18 17.50609
 2018-Dec-18 06:58     07 57 25.048767 +73 18 17.41975
 2018-Dec-18 06:59     07 57 25.058361 +73 18 17.33187
 2018-Dec-18 07:00     07 57 25.067958 +73 18 17.24245
 2018-Dec-18 07:01     07 57 25.077559 +73 18 17.15149
 2018-Dec-18 07:02     07 57 25.087165 +73 18 17.05899
 2018-Dec-18 07:03     07 57 25.096780 +73 18 16.96495
 2018-Dec-18 07:04     07 57 25.106403 +73 18 16.86937
 2018-Dec-18 07:05     07 57 25.116037 +73 18 16.77224
 2018-Dec-18 07:06     07 57 25.125683 +73 18 16.67358
 2018-Dec-18 07:07     07 57 25.135343 +73 18 16.57337
 2018-Dec-18 07:08     07 57 25.145018 +73 18 16.47163
 2018-Dec-18 07:09     07 57 25.154711 +73 18 16.36834
 2018-Dec-18 07:10     07 57 25.164422 +73 18 16.26352
 2018-Dec-18 07:11     07 57 25.174153 +73 18 16.15716
 2018-Dec-18 07:12     07 57 25.183906 +73 18 16.04926
 2018-Dec-18 07:13     07 57 25.193683 +73 18 15.93982
 2018-Dec-18 07:14     07 57 25.203484 +73 18 15.82884
 2018-Dec-18 07:15     07 57 25.213312 +73 18 15.71633
 2018-Dec-18 07:16     07 57 25.223168 +73 18 15.60228
 2018-Dec-18 07:17     07 57 25.233054 +73 18 15.48669
 2018-Dec-18 07:18     07 57 25.242971 +73 18 15.36957
 2018-Dec-18 07:19     07 57 25.252921 +73 18 15.25092
 2018-Dec-18 07:20     07 57 25.262906 +73 18 15.13073
 2018-Dec-18 07:21     07 57 25.272926 +73 18 15.00900
 2018-Dec-18 07:22     07 57 25.282985 +73 18 14.88575
 2018-Dec-18 07:23     07 57 25.293083 +73 18 14.76096
 2018-Dec-18 07:24     07 57 25.303221 +73 18 14.63464
 2018-Dec-18 07:25     07 57 25.313402 +73 18 14.50678
 2018-Dec-18 07:26     07 57 25.323628 +73 18 14.37740
 2018-Dec-18 07:27     07 57 25.333898 +73 18 14.24649
 2018-Dec-18 07:28     07 57 25.344216 +73 18 14.11405
 2018-Dec-18 07:29     07 57 25.354583 +73 18 13.98009
 2018-Dec-18 07:30     07 57 25.365000 +73 18 13.84459
 2018-Dec-18 07:31     07 57 25.375469 +73 18 13.70758
 2018-Dec-18 07:32     07 57 25.385992 +73 18 13.56903
 2018-Dec-18 07:33     07 57 25.396570 +73 18 13.42897
 2018-Dec-18 07:34     07 57 25.407204 +73 18 13.28738
 2018-Dec-18 07:35     07 57 25.417897 +73 18 13.14427
 2018-Dec-18 07:36     07 57 25.428649 +73 18 12.99964
 2018-Dec-18 07:37     07 57 25.439463 +73 18 12.85349
 2018-Dec-18 07:38     07 57 25.450340 +73 18 12.70582
 2018-Dec-18 07:39     07 57 25.461282 +73 18 12.55663
 2018-Dec-18 07:40     07 57 25.472289 +73 18 12.40593
 2018-Dec-18 07:41     07 57 25.483365 +73 18 12.25372
 2018-Dec-18 07:42     07 57 25.494509 +73 18 12.09999
 2018-Dec-18 07:43     07 57 25.505725 +73 18 11.94475
 2018-Dec-18 07:44     07 57 25.517012 +73 18 11.78799
 2018-Dec-18 07:45     07 57 25.528374 +73 18 11.62973
 2018-Dec-18 07:46     07 57 25.539812 +73 18 11.46996
 2018-Dec-18 07:47     07 57 25.551326 +73 18 11.30869
 2018-Dec-18 07:48     07 57 25.562919 +73 18 11.14591
 2018-Dec-18 07:49     07 57 25.574592 +73 18 10.98162
 2018-Dec-18 07:50     07 57 25.586347 +73 18 10.81583
 2018-Dec-18 07:51     07 57 25.598186 +73 18 10.64855
 2018-Dec-18 07:52     07 57 25.610109 +73 18 10.47976
 2018-Dec-18 07:53     07 57 25.622118 +73 18 10.30948
 2018-Dec-18 07:54     07 57 25.634216 +73 18 10.13769
 2018-Dec-18 07:55     07 57 25.646403 +73 18 09.96442
 2018-Dec-18 07:56     07 57 25.658681 +73 18 09.78965
 2018-Dec-18 07:57     07 57 25.671052 +73 18 09.61339
 2018-Dec-18 07:58     07 57 25.683517 +73 18 09.43564
 2018-Dec-18 07:59     07 57 25.696078 +73 18 09.25641
 2018-Dec-18 08:00 A   07 57 25.708735 +73 18 09.07568
 2018-Dec-18 08:01 A   07 57 25.721492 +73 18 08.89348
 2018-Dec-18 08:02 A   07 57 25.734349 +73 18 08.70979
